[
    {
        "Altitude(m)": 604234.5887161918,
        "Argument of Periapsis(deg)": 0.0,
        "Eccentricity": 0.0,
        "Inclination(deg)": 60.0,
        "Latitude(deg)": 14.117118781622112,
        "Longitude(deg)": -83.27267059266713,
        "Mean Anomaly(deg)": -196.36360000000002,
        "RAAN(deg)": 205.0,
        "Satellite Name": "Test1 912",
        "Satellite Number": 912,
        "Semi-Major Axis(m)": 6980739.136638005,
        "Time(s)": 0
    },
    {
        "Altitude(m)": 604223.4179953733,
        "Argument of Periapsis(deg)": 0.00010418945913296404,
        "Eccentricity": 0.0,
        "Inclination(deg)": 60.0,
        "Latitude(deg)": 13.582255103753216,
        "Longitude(deg)": -82.9857616381775,
        "Mean Anomaly(deg)": -195.74349385453817,
        "RAAN(deg)": 204.99957995086024,
        "Satellite Name": "Test1 912",
        "Satellite Number": 912,
        "Semi-Major Axis(m)": 6980739.136638005,
        "Time(s)": 10
    }
]